NORAD_CAT_ID,OBJECT_NAME,OBJECT_TYPE,EPOCH,MEAN_MOTION,ECCENTRICITY,INCLINATION,RA_OF_ASC_NODE,ARG_OF_PERICENTER,MEAN_ANOMALY,BSTAR,MEAN_MOTION_DOT,MEAN_MOTION_DDOT,TLE_LINE0,TLE_LINE1,TLE_LINE2,SEMIMAJOR_AXIS,PERIOD,APOGEE,PERIGEE,DECAYED
52556.0,STARLINK-3763,PAYLOAD,2024-02-26 14:53:41,15.12116911,0.0001462,53.2179,208.1236,85.9488,274.1672,-1.6937e-05,-5.93e-06,0.0,0 STARLINK-3763,1 52556U 22051Z   24057.62061793 -.00000593  00000-0 -16937-4 0  9994,2 52556  53.2179 208.1236 0001462  85.9488 274.1672 15.12116911 99598,6907.882,95.231,530.757,528.737,0.0
52556.0,STARLINK-3763,PAYLOAD,2024-02-26 16:28:52,15.12115824,0.000145,53.2184,207.8258,84.8616,275.2543,-2.5101e-05,-7.35e-06,0.0,0 STARLINK-3763,1 52556U 22051Z   24057.68671528 -.00000735  00000-0 -25101-4 0  9994,2 52556  53.2184 207.8258 0001450  84.8616 275.2543 15.12115824 99605,6907.886,95.231,530.752,528.749,0.0
52556.0,STARLINK-3763,PAYLOAD,2024-02-27 14:41:22,15.12112729,0.0001331,53.2179,203.6508,79.6301,280.4842,2.3291e-05,1.08e-06,0.0,0 STARLINK-3763,1 52556U 22051Z   24058.61206342  .00000108  00000-0  23291-4 0  9996,2 52556  53.2179 203.6508 0001331  79.6301 280.4842 15.12112729 99748,6907.895,95.231,530.679,528.841,0.0
52556.0,STARLINK-3763,PAYLOAD,2024-02-27 19:26:54,15.12113045,0.0001266,53.2178,202.7546,80.768,279.3457,-2.0567e-05,-6.56e-06,0.0,0 STARLINK-3763,1 52556U 22051Z   24058.81035395 -.00000656  00000-0 -20567-4 0  9999,2 52556  53.2178 202.7546 0001266  80.7680 279.3457 15.12113045 99841,6907.894,95.231,530.634,528.885,0.0
52556.0,STARLINK-3763,PAYLOAD,2024-02-28 14:29:03,15.1211478,0.0001219,53.2176,199.1765,82.089,278.0242,8.5404e-06,-1.49e-06,0.0,0 STARLINK-3763,1 52556U 22051Z   24059.60350827 -.00000149  00000-0  85404-5 0  9995,2 52556  53.2176 199.1765 0001219  82.0890 278.0242 15.12114780 99897,6907.889,95.231,530.596,528.912,0.0
52556.0,STARLINK-3763,PAYLOAD,2024-02-28 19:14:35,15.12118033,0.0001186,53.2171,198.281,81.4065,278.7063,2.8347e-05,1.97e-06,0.0,0 STARLINK-3763,1 52556U 22051Z   24059.80179416  .00000197  00000-0  28347-4 0  9994,2 52556  53.2171 198.2810 0001186  81.4065 278.7063 15.12118033 99997,6907.879,95.231,530.563,528.925,0.0
52556.0,STARLINK-3763,PAYLOAD,2024-02-29 14:16:44,15.12111036,0.0001257,53.2167,194.7027,86.0544,274.0593,-2.5142e-05,-7.35e-06,0.0,0 STARLINK-3763,1 52556U 22051Z   24060.59495759 -.00000735  00000-0 -25142-4 0  9993,2 52556  53.2167 194.7027 0001257  86.0544 274.0593 15.12111036100047,6907.9,95.231,530.633,528.897,0.0
52556.0,STARLINK-3763,PAYLOAD,2024-02-29 15:51:55,15.12115823,0.0001216,53.2167,194.4042,81.1425,278.9706,-7.379e-05,-1.583e-05,0.0,0 STARLINK-3763,1 52556U 22051Z   24060.66105342 -.00001583  00000-0 -73790-4 0  9991,2 52556  53.2167 194.4042 0001216  81.1425 278.9706 15.12115823100126,6907.886,95.231,530.591,528.911,0.0
52556.0,STARLINK-3763,PAYLOAD,2024-03-01 14:04:24,15.12120606,0.0001282,53.2171,190.2296,89.6448,270.4692,1.6575e-05,-9e-08,0.0,0 STARLINK-3763,1 52556U 22051Z   24061.58639761 -.00000009  00000-0  16575-4 0  9999,2 52556  53.2171 190.2296 0001282  89.6448 270.4692 15.12120606100190,6907.871,95.23,530.622,528.85,0.0
52556.0,STARLINK-3763,PAYLOAD,2024-03-01 15:39:35,15.12121635,0.0001346,53.2186,189.9343,93.2144,266.9003,1.1223e-05,-1.02e-06,0.0,0 STARLINK-3763,1 52556U 22051Z   24061.65249452 -.00000102  00000-0  11223-4 0  9990,2 52556  53.2186 189.9343 0001346  93.2144 266.9003 15.12121635100277,6907.868,95.23,530.663,528.803,0.0
52556.0,STARLINK-3763,PAYLOAD,2024-03-02 12:16:55,15.12109143,0.0001421,53.2193,186.0583,98.1349,261.9805,-1.1575e-05,-4.99e-06,0.0,0 STARLINK-3763,1 52556U 22051Z   24062.51175520 -.00000499  00000-0 -11575-4 0  9990,2 52556  53.2193 186.0583 0001421  98.1349 261.9805 15.12109143100404,6907.906,95.231,530.753,528.789,0.0
52556.0,STARLINK-3763,PAYLOAD,2024-03-02 13:52:06,15.12111338,0.0001474,53.219,185.7603,99.5717,260.5443,5.9933e-06,-1.93e-06,0.0,0 STARLINK-3763,1 52556U 22051Z   24062.57784972 -.00000193  00000-0  59933-5 0  9994,2 52556  53.2190 185.7603 0001474  99.5717 260.5443 15.12111338100347,6907.899,95.231,530.782,528.746,0.0
52556.0,STARLINK-3763,PAYLOAD,2024-03-03 13:39:47,15.12099722,0.0001567,53.2175,181.2877,96.5073,263.6099,0.0001377,2.101e-05,0.0,0 STARLINK-3763,1 52556U 22051Z   24063.56929897  .00002101  00000-0  13770-3 0  9998,2 52556  53.2175 181.2877 0001567  96.5073 263.6099 15.12099722100498,6907.935,95.232,530.882,528.717,0.0
52556.0,STARLINK-3763,PAYLOAD,2024-03-03 16:50:08,15.1211815,0.000155,53.2186,180.6869,91.0736,269.0435,-2.7811e-05,-7.82e-06,0.0,0 STARLINK-3763,1 52556U 22051Z   24063.70148734 -.00000782  00000-0 -27811-4 0  9994,2 52556  53.2186 180.6869 0001550  91.0736 269.0435 15.12118150100516,6907.879,95.231,530.814,528.673,0.0
52556.0,STARLINK-3763,PAYLOAD,2024-03-04 13:27:27,15.12127078,0.0001429,53.2181,176.8087,94.5156,265.6001,-3.9961e-05,-9.94e-06,0.0,0 STARLINK-3763,1 52556U 22051Z   24064.56073273 -.00000994  00000-0 -39961-4 0  9998,2 52556  53.2181 176.8087 0001429  94.5156 265.6001 15.12127078100643,6907.851,95.23,530.703,528.729,0.0
52556.0,STARLINK-3763,PAYLOAD,2024-03-04 15:02:38,15.12118588,0.0001302,53.2189,176.5091,90.8883,269.2259,2.1348e-05,7.5e-07,0.0,0 STARLINK-3763,1 52556U 22051Z   24064.62683088  .00000075  00000-0  21348-4 0  9994,2 52556  53.2189 176.5091 0001302  90.8883 269.2259 15.12118588100651,6907.877,95.231,530.642,528.843,0.0
52556.0,STARLINK-3763,PAYLOAD,2024-03-05 00:33:43,15.12105501,0.0001383,53.2192,174.7224,79.6601,280.4548,-6.1899e-05,-1.375e-05,0.0,0 STARLINK-3763,1 52556U 22051Z   24065.02342260 -.00001375  00000-0 -61899-4 0  9994,2 52556  53.2192 174.7224 0001383  79.6601 280.4548 15.12105501100786,6907.917,95.231,530.737,528.827,0.0
52556.0,STARLINK-3763,PAYLOAD,2024-03-05 14:50:19,15.12120131,0.0001409,53.2182,172.0423,75.6133,284.5017,8.0473e-06,-1.57e-06,0.0,0 STARLINK-3763,1 52556U 22051Z   24065.61827940 -.00000157  00000-0  80473-5 0  9998,2 52556  53.2182 172.0423 0001409  75.6133 284.5017 15.12120131100807,6907.872,95.231,530.711,528.764,0.0
52556.0,STARLINK-3763,PAYLOAD,2024-03-06 11:27:38,15.12112873,0.0001503,53.2182,168.1649,61.185,298.9294,3.3015e-05,2.78e-06,0.0,0 STARLINK-3763,1 52556U 22051Z   24066.47753453  .00000278  00000-0  33015-4 0  9992,2 52556  53.2182 168.1649 0001503  61.1850 298.9294 15.12112873101007,6907.895,95.231,530.798,528.721,0.0
52556.0,STARLINK-3763,PAYLOAD,2024-03-06 13:02:49,15.12116567,0.0001505,53.2177,167.8653,72.0561,288.0597,2.5934e-05,1.54e-06,0.0,0 STARLINK-3763,1 52556U 22051Z   24066.54362881  .00000154  00000-0  25934-4 0  9995,2 52556  53.2177 167.8653 0001505  72.0561 288.0597 15.12116567100946,6907.883,95.231,530.788,528.709,0.0
52556.0,STARLINK-3763,PAYLOAD,2024-03-07 12:50:30,15.12111231,0.0001427,53.2173,163.3911,82.1394,277.9762,-3.5748e-05,-9.2e-06,0.0,0 STARLINK-3763,1 52556U 22051Z   24067.53508089 -.00000920  00000-0 -35748-4 0  9994,2 52556  53.2173 163.3911 0001427  82.1394 277.9762 15.12111231101090,6907.9,95.231,530.75,528.779,0.0
52556.0,STARLINK-3763,PAYLOAD,2024-03-08 12:38:11,15.12118082,0.000145,53.2179,158.9171,95.1068,265.0091,9.093e-06,-1.39e-06,0.0,0 STARLINK-3763,1 52556U 22051Z   24068.52651907 -.00000139  00000-0  90930-5 0  9998,2 52556  53.2179 158.9171 0001450  95.1068 265.0091 15.12118082101311,6907.879,95.231,530.745,528.742,0.0
52556.0,STARLINK-3763,PAYLOAD,2024-03-09 12:25:52,15.12113992,0.0001449,53.2179,154.4439,91.1881,268.9278,6.0553e-05,7.58e-06,0.0,0 STARLINK-3763,1 52556U 22051Z   24069.51796536  .00000758  00000-0  60553-4 0  9999,2 52556  53.2179 154.4439 0001449  91.1881 268.9278 15.12113992101398,6907.891,95.231,530.757,528.755,0.0
52556.0,STARLINK-3763,PAYLOAD,2024-03-10 05:52:50,15.12110012,0.0001388,53.2176,151.1658,93.7852,266.33,-2.3443e-05,-7.06e-06,0.0,0 STARLINK-3763,1 52556U 22051Z   24070.24503125 -.00000706  00000-0 -23443-4 0  9993,2 52556  53.2176 151.1658 0001388  93.7852 266.3300 15.12110012101578,6907.903,95.231,530.727,528.809,0.0
52556.0,STARLINK-3763,PAYLOAD,2024-03-10 12:13:33,15.1211434,0.0001398,53.2177,149.974,95.5311,264.5842,1.5977e-05,-1.9e-07,0.0,0 STARLINK-3763,1 52556U 22051Z   24070.50941275 -.00000019  00000-0  15977-4 0  9993,2 52556  53.2177 149.9740 0001398  95.5311 264.5842 15.12114340101543,6907.89,95.231,530.721,528.789,0.0
52556.0,STARLINK-3763,PAYLOAD,2024-03-10 21:44:37,15.12115611,0.0001377,53.2175,148.1848,92.8046,267.3105,-1.4047e-05,-5.42e-06,0.0,0 STARLINK-3763,1 52556U 22051Z   24070.90599111 -.00000542  00000-0 -14047-4 0  9994,2 52556  53.2175 148.1848 0001377  92.8046 267.3105 15.12115611101605,6907.886,95.231,530.702,528.8,0.0
52556.0,STARLINK-3763,PAYLOAD,2024-03-11 12:01:14,15.12110835,0.0001487,53.2175,145.5012,95.2479,264.8684,-2.2051e-05,-6.82e-06,0.0,0 STARLINK-3763,1 52556U 22051Z   24071.50086333 -.00000682  00000-0 -22051-4 0  9997,2 52556  53.2175 145.5012 0001487  95.2479 264.8684 15.12110835101694,6907.901,95.231,530.793,528.739,0.0
52556.0,STARLINK-3763,PAYLOAD,2024-03-12 05:28:12,15.12112558,0.0001584,53.2187,142.2209,97.0692,263.0482,-4.8755e-06,-3.82e-06,0.0,0 STARLINK-3763,1 52556U 22051Z   24072.22792287 -.00000382  00000-0 -48755-5 0  9996,2 52556  53.2187 142.2209 0001584  97.0692 263.0482 15.12112558101875,6907.896,95.231,530.855,528.666,0.0
52556.0,STARLINK-3763,PAYLOAD,2024-03-12 21:19:59,15.1211991,0.0001525,53.2179,139.237,86.6203,273.4965,-4.4079e-06,-3.74e-06,0.0,0 STARLINK-3763,1 52556U 22051Z   24072.88888214 -.00000374  00000-0 -44079-5 0  9990,2 52556  53.2179 139.2370 0001525  86.6203 273.4965 15.12119910101902,6907.873,95.231,530.792,528.685,0.0
52556.0,STARLINK-3763,PAYLOAD,2024-03-13 10:01:25,15.12109775,0.0001648,53.2184,136.8513,85.6972,274.4209,2.4158e-06,-2.55e-06,0.0,0 STARLINK-3763,1 52556U 22051Z   24073.41766043 -.00000255  00000-0  24158-5 0  9998,2 52556  53.2184 136.8513 0001648  85.6972 274.4209 15.12109775102055,6907.904,95.231,530.907,528.631,0.0
